CTC2_L_00054001-01
1 16568U 25578AS  26037.47790509  .00000000  00000+0  00000-0 0  9991
2 16568  85.0000   0.0000 0000000   0.0000   0.0000 15.48880291    18
CTC2_L_00054001-02
1 16569U 24248CF  26037.47790509  .00000000  00000+0  00000-0 0  9995
2 16569  85.0000   0.0000 0000000   0.0000  90.0000 15.48880291    18
CTC2_L_00054001-03
1 16570U 23373ER  26037.47790509  .00000000  00000+0  00000-0 0  9995
2 16570  85.0000   0.0000 0000000   0.0000 180.0000 15.48880291    10
CTC2_L_00054001-04
1 16571U 22522VC  26037.47790509  .00000000  00000+0  00000-0 0  9991
2 16571  85.0000   0.0000 0000000   0.0000 270.0000 15.48880291    11
CTC2_L_00054002-01
1 16572U 26185UV  26037.47790509  .00000000  00000+0  00000-0 0  9991
2 16572  85.0000  12.0000 0000000   0.0000  12.0000 15.48880291    19
CTC2_L_00054002-02
1 16573U 23628EO  26037.47790509  .00000000  00000+0  00000-0 0  9991
2 16573  85.0000  12.0000 0000000   0.0000 102.0000 15.48880291    10
CTC2_L_00054002-03
1 16574U 23099UH  26037.47790509  .00000000  00000+0  00000-0 0  9994
2 16574  85.0000  12.0000 0000000   0.0000 192.0000 15.48880291    10
CTC2_L_00054002-04
1 16575U 26600GB  26037.47790509  .00000000  00000+0  00000-0 0  9996
2 16575  85.0000  12.0000 0000000   0.0000 282.0000 15.48880291    11
CTC2_L_00054003-01
1 16576U 23471KA  26037.47790509  .00000000  00000+0  00000-0 0  9990
2 16576  85.0000  24.0000 0000000   0.0000  24.0000 15.48880291    19
CTC2_L_00054003-02
1 16577U 23584IA  26037.47790509  .00000000  00000+0  00000-0 0  9996
2 16577  85.0000  24.0000 0000000   0.0000 114.0000 15.48880291    10
CTC2_L_00054003-03
1 16578U 26008JZ  26037.47790509  .00000000  00000+0  00000-0 0  9991
2 16578  85.0000  24.0000 0000000   0.0000 204.0000 15.48880291    11
CTC2_L_00054003-04
1 16579U 24655GX  26037.47790509  .00000000  00000+0  00000-0 0  9998
2 16579  85.0000  24.0000 0000000   0.0000 294.0000 15.48880291    11
CTC2_L_00054004-01
1 16580U 22200LC  26037.47790509  .00000000  00000+0  00000-0 0  9994
2 16580  85.0000  36.0000 0000000   0.0000  36.0000 15.48880291    10
CTC2_L_00054004-02
1 16581U 26050UZ  26037.47790509  .00000000  00000+0  00000-0 0  9992
2 16581  85.0000  36.0000 0000000   0.0000 126.0000 15.48880291    11
CTC2_L_00054004-03
1 16582U 25739TW  26037.47790509  .00000000  00000+0  00000-0 0  9996
2 16582  85.0000  36.0000 0000000   0.0000 216.0000 15.48880291    12
CTC2_L_00054004-04
1 16583U 23493FG  26037.47790509  .00000000  00000+0  00000-0 0  9992
2 16583  85.0000  36.0000 0000000   0.0000 306.0000 15.48880291    13
CTC2_L_00054005-01
1 16584U 22625AP  26037.47790509  .00000000  00000+0  00000-0 0  9999
2 16584  85.0000  48.0000 0000000   0.0000  48.0000 15.48880291    10
CTC2_L_00054005-02
1 16585U 22670WC  26037.47790509  .00000000  00000+0  00000-0 0  9990
2 16585  85.0000  48.0000 0000000   0.0000 138.0000 15.48880291    11
CTC2_L_00054005-03
1 16586U 25784SX  26037.47790509  .00000000  00000+0  00000-0 0  9990
2 16586  85.0000  48.0000 0000000   0.0000 228.0000 15.48880291    12
CTC2_L_00054005-04
1 16587U 22626VP  26037.47790509  .00000000  00000+0  00000-0 0  9993
2 16587  85.0000  48.0000 0000000   0.0000 318.0000 15.48880291    13
CTC2_L_00054006-01
1 16588U 25717EV  26037.47790509  .00000000  00000+0  00000-0 0  9998
2 16588  85.0000  60.0000 0000000   0.0000  60.0000 15.48880291    12
CTC2_L_00054006-02
1 16589U 26138OS  26037.47790509  .00000000  00000+0  00000-0 0  9997
2 16589  85.0000  60.0000 0000000   0.0000 150.0000 15.48880291    13
CTC2_L_00054006-03
1 16590U 24434HD  26037.47790509  .00000000  00000+0  00000-0 0  9996
2 16590  85.0000  60.0000 0000000   0.0000 240.0000 15.48880291    15
CTC2_L_00054006-04
1 16591U 25900FR  26037.47790509  .00000000  00000+0  00000-0 0  9996
2 16591  85.0000  60.0000 0000000   0.0000 330.0000 15.48880291    16
CTC2_L_00054007-01
1 16592U 26932BL  26037.47790509  .00000000  00000+0  00000-0 0  9993
2 16592  85.0000  72.0000 0000000   0.0000  72.0000 15.48880291    13
CTC2_L_00054007-02
1 16593U 25447BW  26037.47790509  .00000000  00000+0  00000-0 0  9994
2 16593  85.0000  72.0000 0000000   0.0000 162.0000 15.48880291    14
CTC2_L_00054007-03
1 16594U 23894ML  26037.47790509  .00000000  00000+0  00000-0 0  9999
2 16594  85.0000  72.0000 0000000   0.0000 252.0000 15.48880291    15
CTC2_L_00054007-04
1 16595U 23119AF  26037.47790509  .00000000  00000+0  00000-0 0  9990
2 16595  85.0000  72.0000 0000000   0.0000 342.0000 15.48880291    16
CTC2_L_00054008-01
1 16596U 23915YE  26037.47790509  .00000000  00000+0  00000-0 0  9995
2 16596  85.0000  84.0000 0000000   0.0000  84.0000 15.48880291    13
CTC2_L_00054008-02
1 16597U 25791DQ  26037.47790509  .00000000  00000+0  00000-0 0  9990
2 16597  85.0000  84.0000 0000000   0.0000 174.0000 15.48880291    14
CTC2_L_00054008-03
1 16598U 26323UB  26037.47790509  .00000000  00000+0  00000-0 0  9993
2 16598  85.0000  84.0000 0000000   0.0000 264.0000 15.48880291    15
CTC2_L_00054008-04
1 16599U 23026GO  26037.47790509  .00000000  00000+0  00000-0 0  9991
2 16599  85.0000  84.0000 0000000   0.0000 354.0000 15.48880291    16
CTC2_L_00054009-01
1 16600U 23554WZ  26037.47790509  .00000000  00000+0  00000-0 0  9990
2 16600  85.0000  96.0000 0000000   0.0000  96.0000 15.48880291    15
CTC2_L_00054009-02
1 16601U 23952ND  26037.47790509  .00000000  00000+0  00000-0 0  9993
2 16601  85.0000  96.0000 0000000   0.0000 186.0000 15.48880291    16
CTC2_L_00054009-03
1 16602U 24560KB  26037.47790509  .00000000  00000+0  00000-0 0  9990
2 16602  85.0000  96.0000 0000000   0.0000 276.0000 15.48880291    17
CTC2_L_00054009-04
1 16603U 26649FV  26037.47790509  .00000000  00000+0  00000-0 0  9991
2 16603  85.0000  96.0000 0000000   0.0000   6.0000 15.48880291    19
CTC2_L_00054010-01
1 16604U 25481RM  26037.47790509  .00000000  00000+0  00000-0 0  9995
2 16604  85.0000 108.0000 0000000   0.0000 108.0000 15.48880291    17
CTC2_L_00054010-02
1 16605U 25034WC  26037.47790509  .00000000  00000+0  00000-0 0  9990
2 16605  85.0000 108.0000 0000000   0.0000 198.0000 15.48880291    17
CTC2_L_00054010-03
1 16606U 22217FB  26037.47790509  .00000000  00000+0  00000-0 0  9991
2 16606  85.0000 108.0000 0000000   0.0000 288.0000 15.48880291    18
CTC2_L_00054010-04
1 16607U 22414UT  26037.47790509  .00000000  00000+0  00000-0 0  9991
2 16607  85.0000 108.0000 0000000   0.0000  18.0000 15.48880291    10
CTC2_L_00054011-01
1 16608U 23256QU  26037.47790509  .00000000  00000+0  00000-0 0  9997
2 16608  85.0000 120.0000 0000000   0.0000 120.0000 15.48880291    19
CTC2_L_00054011-02
1 16609U 22097NA  26037.47790509  .00000000  00000+0  00000-0 0  9990
2 16609  85.0000 120.0000 0000000   0.0000 210.0000 15.48880291    10
CTC2_L_00054011-03
1 16610U 22883Q   26037.47790509  .00000000  00000+0  00000-0 0  9995
2 16610  85.0000 120.0000 0000000   0.0000 300.0000 15.48880291    12
CTC2_L_00054011-04
1 16611U 26575UJ  26037.47790509  .00000000  00000+0  00000-0 0  9998
2 16611  85.0000 120.0000 0000000   0.0000  30.0000 15.48880291    13
CTC2_L_00054012-01
1 16612U 23691ZG  26037.47790509  .00000000  00000+0  00000-0 0  9995
2 16612  85.0000 132.0000 0000000   0.0000 132.0000 15.48880291    10
CTC2_L_00054012-02
1 16613U 26581QV  26037.47790509  .00000000  00000+0  00000-0 0  9997
2 16613  85.0000 132.0000 0000000   0.0000 222.0000 15.48880291    11
CTC2_L_00054012-03
1 16614U 23747XJ  26037.47790509  .00000000  00000+0  00000-0 0  9999
2 16614  85.0000 132.0000 0000000   0.0000 312.0000 15.48880291    12
CTC2_L_00054012-04
1 16615U 25014AI  26037.47790509  .00000000  00000+0  00000-0 0  9999
2 16615  85.0000 132.0000 0000000   0.0000  42.0000 15.48880291    13
CTC2_L_00054013-01
1 16616U 25022QZ  26037.47790509  .00000000  00000+0  00000-0 0  9999
2 16616  85.0000 144.0000 0000000   0.0000 144.0000 15.48880291    10
CTC2_L_00054013-02
1 16617U 23829YS  26037.47790509  .00000000  00000+0  00000-0 0  9993
2 16617  85.0000 144.0000 0000000   0.0000 234.0000 15.48880291    11
CTC2_L_00054013-03
1 16618U 23302HJ  26037.47790509  .00000000  00000+0  00000-0 0  9990
2 16618  85.0000 144.0000 0000000   0.0000 324.0000 15.48880291    12
CTC2_L_00054013-04
1 16619U 24268FW  26037.47790509  .00000000  00000+0  00000-0 0  9993
2 16619  85.0000 144.0000 0000000   0.0000  54.0000 15.48880291    13
CTC2_L_00054014-01
1 16620U 23684RV  26037.47790509  .00000000  00000+0  00000-0 0  9996
2 16620  85.0000 156.0000 0000000   0.0000 156.0000 15.48880291    11
CTC2_L_00054014-02
1 16621U 23832PN  26037.47790509  .00000000  00000+0  00000-0 0  9992
2 16621  85.0000 156.0000 0000000   0.0000 246.0000 15.48880291    12
CTC2_L_00054014-03
1 16622U 24050QK  26037.47790509  .00000000  00000+0  00000-0 0  9996
2 16622  85.0000 156.0000 0000000   0.0000 336.0000 15.48880291    13
CTC2_L_00054014-04
1 16623U 26013QR  26037.47790509  .00000000  00000+0  00000-0 0  9998
2 16623  85.0000 156.0000 0000000   0.0000  66.0000 15.48880291    14
CTC2_L_00054015-01
1 16624U 22660BE  26037.47790509  .00000000  00000+0  00000-0 0  9993
2 16624  85.0000 168.0000 0000000   0.0000 168.0000 15.48880291    11
CTC2_L_00054015-02
1 16625U 26346P   26037.47790509  .00000000  00000+0  00000-0 0  9999
2 16625  85.0000 168.0000 0000000   0.0000 258.0000 15.48880291    12
CTC2_L_00054015-03
1 16626U 22793OJ  26037.47790509  .00000000  00000+0  00000-0 0  9992
2 16626  85.0000 168.0000 0000000   0.0000 348.0000 15.48880291    13
CTC2_L_00054015-04
1 16627U 24958NQ  26037.47790509  .00000000  00000+0  00000-0 0  9998
2 16627  85.0000 168.0000 0000000   0.0000  78.0000 15.48880291    14
CTC2_L_00054016-01
1 16628U 23721VG  26037.47790509  .00000000  00000+0  00000-0 0  9996
2 16628  85.0000 180.0000 0000000   0.0000 180.0000 15.48880291    13
CTC2_L_00054016-02
1 16629U 22027HA  26037.47790509  .00000000  00000+0  00000-0 0  9995
2 16629  85.0000 180.0000 0000000   0.0000 270.0000 15.48880291    14
